{
  "norad_id": 56504,
  "name": "STARLINK-5716",
  "history": [
    {
      "epoch": "2026-03-28T20:00:01.999872",
      "apogee_km": 486.52481912443,
      "perigee_km": 484.5756692208297,
      "latitude_deg": -30.946903907361055,
      "longitude_deg": -89.59777792007662,
      "semi_major_axis_km": 6863.68724417263,
      "eccentricity": 0.00014199,
      "inclination_deg": 43.0008,
      "raan_deg": 104.1523,
      "arg_perigee_deg": 283.3828,
      "mean_anomaly_deg": 308.0196,
      "mean_motion_rev_day": 15.26745094
    },
    {
      "epoch": "2026-03-29T04:00:01.999584",
      "apogee_km": 486.3983393226572,
      "perigee_km": 484.6508510805188,
      "latitude_deg": -42.28707471338247,
      "longitude_deg": -57.59777824021876,
      "semi_major_axis_km": 6863.661595201588,
      "eccentricity": 0.0001273,
      "inclination_deg": 43.0004,
      "raan_deg": 102.2744,
      "arg_perigee_deg": 284.0673,
      "mean_anomaly_deg": 341.5733,
      "mean_motion_rev_day": 15.26753652
    }
  ]
}